FENGYUN 1C DEB          
1 30721U 99025ASF 17345.58483502  .00000924  00000-0  38581-3 0  9996
2 30721  98.8185  32.6496 0057113 347.4639 178.2006 14.27753382558809
